COSMOS 2361             
1 25590U 98076A   26063.15311490  .00000091  00000+0  81281-4 0  9995
2 25590  82.9313 283.8859 0032351  41.1216  78.2676 13.73226918362280
COSMOS 2378             
1 26818U 01023A   26063.15570517  .00000093  00000+0  83176-4 0  9999
2 26818  82.9260 299.3715 0032653 342.6384 132.6316 13.74150560240414
COSMOS 2389             
1 27436U 02026A   26063.05538656  .00000063  00000+0  49090-4 0  9991
2 27436  82.9466 246.7870 0046080 191.5103 290.8558 13.75163805192661
COSMOS 2398             
1 27818U 03023A   26062.86201056  .00000053  00000+0  42214-4 0  9992
2 27818  82.9483 212.9117 0030223 246.4994 224.1665 13.72394739139291
COSMOS 2407             
1 28380U 04028A   26063.15347387  .00000091  00000+0  76777-4 0  9997
2 28380  82.9639 152.6237 0039299 184.1574 191.2267 13.76324308 85433
COSMOS 2414             
1 28521U 05002A   26063.13915260  .00000127  00000+0  93870-4 0  9999
2 28521  82.9492 123.1170 0038676 268.7807  90.8925 13.87914663 69249
COSMOS 2429             
1 32052U 07038A   26063.13904370  .00000086  00000+0  73038-4 0  9992
2 32052  82.9776 283.3145 0038601 166.9274 193.2893 13.75157696927218
COSMOS 2454             
1 35635U 09039A   26063.16689223  .00000095  00000+0  64213-4 0  9990
2 35635  82.9535 106.9218 0018820 195.4542 226.0459 13.89940503842815
COSMOS 2463             
1 36519U 10017A   26063.15837549  .00000076  00000+0  67110-4 0  9993
2 36519  82.9639 326.8942 0037385  62.4114  45.3409 13.71657328793536
