[{"OBJECT_NAME":"COSMOS 2361","OBJECT_ID":"1998-076A","EPOCH":"2026-03-04T03:40:29.127360","MEAN_MOTION":13.73226918,"ECCENTRICITY":0.0032351,"INCLINATION":82.9313,"RA_OF_ASC_NODE":283.8859,"ARG_OF_PERICENTER":41.1216,"MEAN_ANOMALY":78.2676,"EPHEMERIS_TYPE":0,"CLASSIFICATION_TYPE":"U","NORAD_CAT_ID":25590,"ELEMENT_SET_NO":999,"REV_AT_EPOCH":36228,"BSTAR":8.1281e-5,"MEAN_MOTION_DOT":9.1e-7,"MEAN_MOTION_DDOT":0},{"OBJECT_NAME":"COSMOS 2378","OBJECT_ID":"2001-023A","EPOCH":"2026-03-04T03:44:12.926688","MEAN_MOTION":13.7415056,"ECCENTRICITY":0.0032653,"INCLINATION":82.926,"RA_OF_ASC_NODE":299.3715,"ARG_OF_PERICENTER":342.6384,"MEAN_ANOMALY":132.6316,"EPHEMERIS_TYPE":0,"CLASSIFICATION_TYPE":"U","NORAD_CAT_ID":26818,"ELEMENT_SET_NO":999,"REV_AT_EPOCH":24041,"BSTAR":8.3176e-5,"MEAN_MOTION_DOT":9.3e-7,"MEAN_MOTION_DDOT":0},{"OBJECT_NAME":"COSMOS 2389","OBJECT_ID":"2002-026A","EPOCH":"2026-03-04T01:19:45.398784","MEAN_MOTION":13.75163805,"ECCENTRICITY":0.004608,"INCLINATION":82.9466,"RA_OF_ASC_NODE":246.787,"ARG_OF_PERICENTER":191.5103,"MEAN_ANOMALY":290.8558,"EPHEMERIS_TYPE":0,"CLASSIFICATION_TYPE":"U","NORAD_CAT_ID":27436,"ELEMENT_SET_NO":999,"REV_AT_EPOCH":19266,"BSTAR":4.909e-5,"MEAN_MOTION_DOT":6.3e-7,"MEAN_MOTION_DDOT":0},{"OBJECT_NAME":"COSMOS 2398","OBJECT_ID":"2003-023A","EPOCH":"2026-03-03T20:41:17.712384","MEAN_MOTION":13.72394739,"ECCENTRICITY":0.0030223,"INCLINATION":82.9483,"RA_OF_ASC_NODE":212.9117,"ARG_OF_PERICENTER":246.4994,"MEAN_ANOMALY":224.1665,"EPHEMERIS_TYPE":0,"CLASSIFICATION_TYPE":"U","NORAD_CAT_ID":27818,"ELEMENT_SET_NO":999,"REV_AT_EPOCH":13929,"BSTAR":4.2214e-5,"MEAN_MOTION_DOT":5.3e-7,"MEAN_MOTION_DDOT":0},{"OBJECT_NAME":"COSMOS 2407","OBJECT_ID":"2004-028A","EPOCH":"2026-03-04T03:41:00.142368","MEAN_MOTION":13.76324308,"ECCENTRICITY":0.0039299,"INCLINATION":82.9639,"RA_OF_ASC_NODE":152.6237,"ARG_OF_PERICENTER":184.1574,"MEAN_ANOMALY":191.2267,"EPHEMERIS_TYPE":0,"CLASSIFICATION_TYPE":"U","NORAD_CAT_ID":28380,"ELEMENT_SET_NO":999,"REV_AT_EPOCH":8543,"BSTAR":7.6777e-5,"MEAN_MOTION_DOT":9.1e-7,"MEAN_MOTION_DDOT":0},{"OBJECT_NAME":"COSMOS 2414","OBJECT_ID":"2005-002A","EPOCH":"2026-03-04T03:20:22.784640","MEAN_MOTION":13.87914663,"ECCENTRICITY":0.0038676,"INCLINATION":82.9492,"RA_OF_ASC_NODE":123.117,"ARG_OF_PERICENTER":268.7807,"MEAN_ANOMALY":90.8925,"EPHEMERIS_TYPE":0,"CLASSIFICATION_TYPE":"U","NORAD_CAT_ID":28521,"ELEMENT_SET_NO":999,"REV_AT_EPOCH":6924,"BSTAR":9.387e-5,"MEAN_MOTION_DOT":1.27e-6,"MEAN_MOTION_DDOT":0},{"OBJECT_NAME":"COSMOS 2429","OBJECT_ID":"2007-038A","EPOCH":"2026-03-04T03:20:13.375680","MEAN_MOTION":13.75157696,"ECCENTRICITY":0.0038601,"INCLINATION":82.9776,"RA_OF_ASC_NODE":283.3145,"ARG_OF_PERICENTER":166.9274,"MEAN_ANOMALY":193.2893,"EPHEMERIS_TYPE":0,"CLASSIFICATION_TYPE":"U","NORAD_CAT_ID":32052,"ELEMENT_SET_NO":999,"REV_AT_EPOCH":92721,"BSTAR":7.3038e-5,"MEAN_MOTION_DOT":8.6e-7,"MEAN_MOTION_DDOT":0},{"OBJECT_NAME":"COSMOS 2454","OBJECT_ID":"2009-039A","EPOCH":"2026-03-04T04:00:19.488672","MEAN_MOTION":13.89940503,"ECCENTRICITY":0.001882,"INCLINATION":82.9535,"RA_OF_ASC_NODE":106.9218,"ARG_OF_PERICENTER":195.4542,"MEAN_ANOMALY":226.0459,"EPHEMERIS_TYPE":0,"CLASSIFICATION_TYPE":"U","NORAD_CAT_ID":35635,"ELEMENT_SET_NO":999,"REV_AT_EPOCH":84281,"BSTAR":6.4213e-5,"MEAN_MOTION_DOT":9.5e-7,"MEAN_MOTION_DDOT":0},{"OBJECT_NAME":"COSMOS 2463","OBJECT_ID":"2010-017A","EPOCH":"2026-03-04T03:48:03.642336","MEAN_MOTION":13.71657328,"ECCENTRICITY":0.0037385,"INCLINATION":82.9639,"RA_OF_ASC_NODE":326.8942,"ARG_OF_PERICENTER":62.4114,"MEAN_ANOMALY":45.3409,"EPHEMERIS_TYPE":0,"CLASSIFICATION_TYPE":"U","NORAD_CAT_ID":36519,"ELEMENT_SET_NO":999,"REV_AT_EPOCH":79353,"BSTAR":6.711e-5,"MEAN_MOTION_DOT":7.6e-7,"MEAN_MOTION_DDOT":0}]
